{"type": "FeatureCollection", "features": [ {"type": "Feature", "properties": {"norad_id": 51444, "name": "CSG-2", "group": "resource", "lat": 78.2784901324098, "lon": 33.103309784789744, "alt_km": 614.2144614097888, "timestamp": "2025-12-15T22:44:28.581322+00:00", "meta": {"OBJECT_NAME": "CSG-2", "OBJECT_ID": "2022-008A", "EPOCH": "2025-12-14T21:59:39.018912", "MEAN_MOTION": 14.82165966, "ECCENTRICITY": 0.0001469, "INCLINATION": 97.8808, "RA_OF_ASC_NODE": 170.2065, "ARG_OF_PERICENTER": 82.0603, "MEAN_ANOMALY": 278.0777, "EPHEMERIS_TYPE": 0, "CLASSIFICATION_TYPE": "U", "NORAD_CAT_ID": 51444, "ELEMENT_SET_NO": 999, "REV_AT_EPOCH": 20929, "BSTAR": 5.0769599e-05, "MEAN_MOTION_DOT": 3.52e-06, "MEAN_MOTION_DDOT": 0}, "tle": {"line1": "1 51444U 22008A   25348.91642383  .00000352  00000+0  50770-4 0  9990", "line2": "2 51444  97.8808 170.2065 0001469  82.0603 278.0777 14.82165966209298"}}, "geometry": {"type": "Point", "coordinates": [33.103309784789744, 78.2784901324098]}}, {"type": "Feature", "properties": {"norad_id": 52912, "name": "GAOFEN-12 03", "group": "resource", "lat": -14.212445898179935, "lon": -120.77577234944077, "alt_km": 634.6805699276701, "timestamp": "2025-12-15T22:44:28.581333+00:00", "meta": {"OBJECT_NAME": "GAOFEN-12 03", "OBJECT_ID": "2022-069A", "EPOCH": "2025-12-15T08:11:55.341600", "MEAN_MOTION": 14.79618308, "ECCENTRICITY": 0.00021785, "INCLINATION": 97.8484, "RA_OF_ASC_NODE": 236.6304, "ARG_OF_PERICENTER": 58.1051, "MEAN_ANOMALY": 302.0373, "EPHEMERIS_TYPE": 0, "CLASSIFICATION_TYPE": "U", "NORAD_CAT_ID": 52912, "ELEMENT_SET_NO": 999, "REV_AT_EPOCH": 18742, "BSTAR": 0.00020094775, "MEAN_MOTION_DOT": 1.456e-05, "MEAN_MOTION_DDOT": 0}, "tle": {"line1": "1 52912U 22069A   25349.34161275  .00001456  00000+0  20095-3 0  9994", "line2": "2 52912  97.8484 236.6304 0002178  58.1051 302.0373 14.79618308187420"}}, "geometry": {"type": "Point", "coordinates": [-120.77577234944077, -14.212445898179935]}}, {"type": "Feature", "properties": {"norad_id": 54754, "name": "SWOT", "group": "resource", "lat": 51.62365061939132, "lon": 86.54506260903752, "alt_km": 888.0050927288921, "timestamp": "2025-12-15T22:44:28.581343+00:00", "meta": {"OBJECT_NAME": "SWOT", "OBJECT_ID": "2022-173A", "EPOCH": "2025-12-15T08:25:11.122752", "MEAN_MOTION": 14.00167294, "ECCENTRICITY": 3.502e-05, "INCLINATION": 77.6107, "RA_OF_ASC_NODE": 283.465, "ARG_OF_PERICENTER": 105.2769, "MEAN_ANOMALY": 254.8421, "EPHEMERIS_TYPE": 0, "CLASSIFICATION_TYPE": "U", "NORAD_CAT_ID": 54754, "ELEMENT_SET_NO": 999, "REV_AT_EPOCH": 15342, "BSTAR": 5.7923506e-05, "MEAN_MOTION_DOT": 8.3e-07, "MEAN_MOTION_DDOT": 0}, "tle": {"line1": "1 54754U 22173A   25349.35082318  .00000083  00000+0  57924-4 0  9994", "line2": "2 54754  77.6107 283.4650 0000350 105.2769 254.8421 14.00167294153426"}}, "geometry": {"type": "Point", "coordinates": [86.54506260903752, 51.62365061939132]}}, {"type": "Feature", "properties": {"norad_id": 57654, "name": "GAOFEN-12 04", "group": "resource", "lat": 23.190531319978863, "lon": 89.0715334408255, "alt_km": 629.7483515528493, "timestamp": "2025-12-15T22:44:28.581354+00:00", "meta": {"OBJECT_NAME": "GAOFEN-12 04", "OBJECT_ID": "2023-123A", "EPOCH": "2025-12-15T07:25:48.767808", "MEAN_MOTION": 14.79707268, "ECCENTRICITY": 0.00012779, "INCLINATION": 97.9122, "RA_OF_ASC_NODE": 265.0277, "ARG_OF_PERICENTER": 73.8126, "MEAN_ANOMALY": 286.3226, "EPHEMERIS_TYPE": 0, "CLASSIFICATION_TYPE": "U", "NORAD_CAT_ID": 57654, "ELEMENT_SET_NO": 999, "REV_AT_EPOCH": 12543, "BSTAR": 0.0001942425, "MEAN_MOTION_DOT": 1.408e-05, "MEAN_MOTION_DDOT": 0}, "tle": {"line1": "1 57654U 23123A   25349.30959222  .00001408  00000+0  19424-3 0  9998", "line2": "2 57654  97.9122 265.0277 0001277  73.8126 286.3226 14.79707268125437"}}, "geometry": {"type": "Point", "coordinates": [89.0715334408255, 23.190531319978863]}}, {"type": "Feature", "properties": {"norad_id": 59065, "name": "PARS 1", "group": "resource", "lat": -0.1791942127996898, "lon": 140.92528978997623, "alt_km": 450.0913807985726, "timestamp": "2025-12-15T22:44:28.581365+00:00", "meta": {"OBJECT_NAME": "PARS 1", "OBJECT_ID": "2024-039Q", "EPOCH": "2025-12-15T07:56:16.357632", "MEAN_MOTION": 15.41037403, "ECCENTRICITY": 0.00124317, "INCLINATION": 97.4631, "RA_OF_ASC_NODE": 320.3188, "ARG_OF_PERICENTER": 64.5547, "MEAN_ANOMALY": 295.6984, "EPHEMERIS_TYPE": 0, "CLASSIFICATION_TYPE": "U", "NORAD_CAT_ID": 59065, "ELEMENT_SET_NO": 999, "REV_AT_EPOCH": 10028, "BSTAR": 0.00022169379, "MEAN_MOTION_DOT": 9.089e-05, "MEAN_MOTION_DDOT": 0}, "tle": {"line1": "1 59065U 24039Q   25349.33074488  .00009089  00000+0  22169-3 0  9991", "line2": "2 59065  97.4631 320.3188 0012431  64.5547 295.6984 15.41037403100286"}}, "geometry": {"type": "Point", "coordinates": [140.92528978997623, -0.1791942127996898]}}, {"type": "Feature", "properties": {"norad_id": 59371, "name": "RESURS-P 4", "group": "resource", "lat": -38.8773356836661, "lon": 110.31707289313529, "alt_km": 476.9239843283822, "timestamp": "2025-12-15T22:44:28.581375+00:00", "meta": {"OBJECT_NAME": "RESURS-P 4", "OBJECT_ID": "2024-061A", "EPOCH": "2025-12-15T09:14:52.149120", "MEAN_MOTION": 15.32108174, "ECCENTRICITY": 0.00013067, "INCLINATION": 97.2542, "RA_OF_ASC_NODE": 295.661, "ARG_OF_PERICENTER": 55.2561, "MEAN_ANOMALY": 304.8804, "EPHEMERIS_TYPE": 0, "CLASSIFICATION_TYPE": "U", "NORAD_CAT_ID": 59371, "ELEMENT_SET_NO": 999, "REV_AT_EPOCH": 9561, "BSTAR": 0.00010790175, "MEAN_MOTION_DOT": 3.269e-05, "MEAN_MOTION_DDOT": 0}, "tle": {"line1": "1 59371U 24061A   25349.38532580  .00003269  00000+0  10790-3 0  9994", "line2": "2 59371  97.2542 295.6610 0001306  55.2561 304.8804 15.32108174 95619"}}, "geometry": {"type": "Point", "coordinates": [110.31707289313529, -38.8773356836661]}}, {"type": "Feature", "properties": {"norad_id": 59625, "name": "LEGION 1", "group": "resource", "lat": -80.58978503714732, "lon": -168.3075004537017, "alt_km": 521.7193613593054, "timestamp": "2025-12-15T22:44:28.581385+00:00", "meta": {"OBJECT_NAME": "LEGION 1", "OBJECT_ID": "2024-081A", "EPOCH": "2025-12-15T08:54:36.467424", "MEAN_MOTION": 15.16508095, "ECCENTRICITY": 0.00038456, "INCLINATION": 97.5215, "RA_OF_ASC_NODE": 63.9872, "ARG_OF_PERICENTER": 306.2908, "MEAN_ANOMALY": 53.797, "EPHEMERIS_TYPE": 0, "CLASSIFICATION_TYPE": "U", "NORAD_CAT_ID": 59625, "ELEMENT_SET_NO": 999, "REV_AT_EPOCH": 8967, "BSTAR": 0.00021154691, "MEAN_MOTION_DOT": 4.055e-05, "MEAN_MOTION_DDOT": 0}, "tle": {"line1": "1 59625U 24081A   25349.37125541  .00004055  00000+0  21155-3 0  9993", "line2": "2 59625  97.5215  63.9872 0003845 306.2908  53.7970 15.16508095 89672"}}, "geometry": {"type": "Point", "coordinates": [-168.3075004537017, -80.58978503714732]}}, {"type": "Feature", "properties": {"norad_id": 59626, "name": "LEGION 2", "group": "resource", "lat": 80.54960848692244, "lon": 12.103136469825403, "alt_km": 512.6774128119969, "timestamp": "2025-12-15T22:44:28.581396+00:00", "meta": {"OBJECT_NAME": "LEGION 2", "OBJECT_ID": "2024-081B", "EPOCH": "2025-12-15T08:07:07.442112", "MEAN_MOTION": 15.16521566, "ECCENTRICITY": 0.00056309, "INCLINATION": 97.5218, "RA_OF_ASC_NODE": 64.0418, "ARG_OF_PERICENTER": 282.5283, "MEAN_ANOMALY": 77.532, "EPHEMERIS_TYPE": 0, "CLASSIFICATION_TYPE": "U", "NORAD_CAT_ID": 59626, "ELEMENT_SET_NO": 999, "REV_AT_EPOCH": 8967, "BSTAR": 0.0002014442, "MEAN_MOTION_DOT": 3.86e-05, "MEAN_MOTION_DDOT": 0}, "tle": {"line1": "1 59626U 24081B   25349.33828058  .00003860  00000+0  20144-3 0  9993", "line2": "2 59626  97.5218  64.0418 0005630 282.5283  77.5320 15.16521566 89671"}}, "geometry": {"type": "Point", "coordinates": [12.103136469825403, 80.54960848692244]}}, {"type": "Feature", "properties": {"norad_id": 60182, "name": "ALOS-4 (DAICHI-4)", "group": "resource", "lat": 33.880802930282954, "lon": 79.38335789849684, "alt_km": 628.432213500816, "timestamp": "2025-12-15T22:44:28.581406+00:00", "meta": {"OBJECT_NAME": "ALOS-4 (DAICHI-4)", "OBJECT_ID": "2024-123A", "EPOCH": "2025-12-15T11:13:28.758144", "MEAN_MOTION": 14.79472725, "ECCENTRICITY": 0.0001427, "INCLINATION": 97.9227, "RA_OF_ASC_NODE": 84.276, "ARG_OF_PERICENTER": 100.6181, "MEAN_ANOMALY": 259.5191, "EPHEMERIS_TYPE": 0, "CLASSIFICATION_TYPE": "U", "NORAD_CAT_ID": 60182, "ELEMENT_SET_NO": 999, "REV_AT_EPOCH": 7871, "BSTAR": 0.00019218, "MEAN_MOTION_DOT": 1.384e-05, "MEAN_MOTION_DDOT": 0}, "tle": {"line1": "1 60182U 24123A   25349.46769396  .00001384  00000+0  19218-3 0  9991", "line2": "2 60182  97.9227  84.2760 0001427 100.6181 259.5191 14.79472725 78716"}}, "geometry": {"type": "Point", "coordinates": [79.38335789849684, 33.880802930282954]}}, {"type": "Feature", "properties": {"norad_id": 60452, "name": "LEGION 3", "group": "resource", "lat": 18.427155594583137, "lon": 93.45883781339401, "alt_km": 511.08646463196874, "timestamp": "2025-12-15T22:44:28.581417+00:00", "meta": {"OBJECT_NAME": "LEGION 3", "OBJECT_ID": "2024-146A", "EPOCH": "2025-12-15T07:49:53.896800", "MEAN_MOTION": 15.15792269, "ECCENTRICITY": 0.00151851, "INCLINATION": 45.0019, "RA_OF_ASC_NODE": 296.2657, "ARG_OF_PERICENTER": 212.7005, "MEAN_ANOMALY": 147.2935, "EPHEMERIS_TYPE": 0, "CLASSIFICATION_TYPE": "U", "NORAD_CAT_ID": 60452, "ELEMENT_SET_NO": 999, "REV_AT_EPOCH": 7412, "BSTAR": 0.00024004454, "MEAN_MOTION_DOT": 4.41e-05, "MEAN_MOTION_DDOT": 0}, "tle": {"line1": "1 60452U 24146A   25349.32631825  .00004410  00000+0  24004-3 0  9998", "line2": "2 60452  45.0019 296.2657 0015185 212.7005 147.2935 15.15792269 74124"}}, "geometry": {"type": "Point", "coordinates": [93.45883781339401, 18.427155594583137]}}]}